GSAT0101 (PRN E11)      
1 37846U 11060A   23080.12021222 -.00000102  00000+0  00000+0 0  9993
2 37846  57.0787  13.8260 0004116   3.6944 356.2957  1.70475860 70936
GSAT0102 (PRN E12)      
1 37847U 11060B   23079.75049316 -.00000101  00000+0  00000+0 0  9994
2 37847  57.0792  13.8358 0005071 340.1290 199.6058  1.70475201 70935
GSAT0103 (PRN E19)      
1 38857U 12055A   23082.50560688  .00000020  00000+0  00000+0 0  9997
2 38857  55.2233 134.0234 0004941 262.5128  97.5183  1.70473559 64862
GSAT0104 (PRN E20)      
1 38858U 12055B   23082.47530279  .00000020  00000+0  00000+0 0  9997
2 38858  55.2232 134.0258 0002690 254.7755 105.2821  1.70473833 64867
GSAT0201 (PRN E18)      
1 40128U 14050A   23078.63719045 -.00000060  00000+0  00000+0 0  9995
2 40128  50.0791 321.3073 1612206 133.9557 240.5271  1.85519106 56322
GSAT0202 (PRN E14)      
1 40129U 14050B   23082.13114638 -.00000087  00000+0  00000+0 0  9992
2 40129  50.0975 320.2354 1609544 134.8991 239.3460  1.85519850 58559
GSAT0203 (PRN E26)      
1 40544U 15017A   23082.24599917 -.00000106  00000+0  00000+0 0  9998
2 40544  56.8742  13.7637 0003581 291.3854  68.5683  1.70475621 49054
GSAT0204 (PRN E22)      
1 40545U 15017B   23078.39322807 -.00000097  00000+0  00000+0 0  9991
2 40545  56.8797  13.8822 0002910 279.8328  80.1209  1.70475293 12031
GSAT0205 (PRN E24)      
1 40889U 15045A   23082.26741405  .00000004  00000+0  00000+0 0  9990
2 40889  55.4541 254.2558 0005933  36.6741 323.3160  1.70473581 46861
GSAT0206 (PRN E30)      
1 40890U 15045B   23081.90152721  .00000004  00000+0  00000+0 0  9999
2 40890  55.4543 254.2617 0003911  35.9223 324.0542  1.70473671 46886
GSAT0209 (PRN E09)      
1 41174U 15079A   23082.07383700  .00000022  00000+0  00000+0 0  9994
2 41174  55.2402 133.7409 0004666 298.9352  61.1068  1.70474841 44628
GSAT0208 (PRN E08)      
1 41175U 15079B   23081.12022284  .00000026  00000+0  00000+0 0  9991
2 41175  55.2355 133.7648 0003972 295.7779  64.2717  1.70474675 45023
GSAT0211 (PRN E02)      
1 41549U 16030A   23080.65404859  .00000006  00000+0  00000+0 0  9991
2 41549  55.6019 254.2585 0003728   8.7927 351.1690  1.70473559 42490
GSAT0210 (PRN E01)      
1 41550U 16030B   23079.18581226  .00000015  00000+0  00000+0 0  9993
2 41550  55.6013 254.3004 0001705 345.9452  14.0158  1.70473527 42461
GSAT0207 (PRN E07)      
1 41859U 16069A   23082.36780411  .00000020  00000+0  00000+0 0  9994
2 41859  54.9022 133.8452 0005548 283.7082  76.3177  1.70474815 39256
GSAT0212 (PRN E03)      
1 41860U 16069B   23082.22223923  .00000021  00000+0  00000+0 0  9992
2 41860  54.8992 133.8463 0003455 305.0001  55.0556  1.70473432 39506
GSAT0213 (PRN E04)      
1 41861U 16069C   23082.58743324  .00000019  00000+0  00000+0 0  9991
2 41861  54.9018 133.8418 0005293 269.1742  90.8520  1.70473552 39377
GSAT0214 (PRN E05)      
1 41862U 16069D   23081.56141444  .00000024  00000+0  00000+0 0  9990
2 41862  54.8999 133.8646 0004022 269.3368  90.7069  1.70473548 39487
GSAT0215 (PRN E21)      
1 43055U 17079A   23081.46465687  .00000004  00000+0  00000+0 0  9993
2 43055  55.5772 254.0647 0001184 358.7713   1.1796  1.70474319 32821
GSAT0216 (PRN E25)      
1 43056U 17079B   23079.99695230  .00000009  00000+0  00000+0 0  9993
2 43056  55.5784 254.1049 0002271 314.8399  45.1007  1.70474400 32816
GSAT0217 (PRN E27)      
1 43057U 17079C   23081.39041849  .00000004  00000+0  00000+0 0  9997
2 43057  55.5753 254.0658 0002548 339.8106  20.1308  1.70474367 32828
GSAT0218 (PRN E31)      
1 43058U 17079D   23079.85070598  .00000010  00000+0  00000+0 0  9996
2 43058  55.5765 254.1057 0002507 303.4483  56.4879  1.70474328 32794
GSAT0221 (PRN E15)      
1 43564U 18060A   23082.09587508 -.00000106  00000+0  00000+0 0  9990
2 43564  57.2554  13.6541 0004543 304.5529  55.3959  1.70475339 29013
GSAT0222 (PRN E33)      
1 43565U 18060B   23079.38282152 -.00000100  00000+0  00000+0 0  9990
2 43565  57.2571  13.7281 0004539 312.1540  47.7940  1.70475249 29013
GSAT0219 (PRN E36)      
1 43566U 18060C   23079.01675431 -.00000099  00000+0  00000+0 0  9994
2 43566  57.2575  13.7402 0004277 313.1774  46.7732  1.70475268 28986
GSAT0220 (PRN E13)      
1 43567U 18060D   23077.47732724 -.00000092  00000+0  00000+0 0  9995
2 43567  57.2567  13.7820 0004177 309.9288  50.0220  1.70475004 28948
GSAT0223 (PRN E34)      
1 49809U 21116A   23077.62528538 -.00000093  00000+0  00000+0 0  9990
2 49809  57.2487  13.6749 0001009 283.7707 257.1768  1.70475152  7958
GSAT0224 (PRN E10)      
1 49810U 21116B   23079.84496110 -.00000101  00000+0  00000+0 0  9998
2 49810  57.2501  13.6128 0000900 330.3509 245.3296  1.70475192  8002
